{
    "links": {
        "self": "http://www.neowsapp.com/rest/v1/neo/3730730?api_key=iIulBulltgU6a56xZRHN4H3l9WmuAYTsLGpBGhQ2"
    },
    "id": "3730730",
    "neo_reference_id": "3730730",
    "name": "(2015 TJ238)",
    "designation": "2015 TJ238",
    "nasa_jpl_url": "http://ssd.jpl.nasa.gov/sbdb.cgi?sstr=3730730",
    "absolute_magnitude_h": 22.9,
    "estimated_diameter": {
        "kilometers": {
            "estimated_diameter_min": 0.0699125232,
            "estimated_diameter_max": 0.1563291544
        },
        "meters": {
            "estimated_diameter_min": 69.9125232246,
            "estimated_diameter_max": 156.3291544087
        },
        "miles": {
            "estimated_diameter_min": 0.0434416145,
            "estimated_diameter_max": 0.097138403
        },
        "feet": {
            "estimated_diameter_min": 229.3718026961,
            "estimated_diameter_max": 512.8909429502
        }
    },
    "is_potentially_hazardous_asteroid": false,
    "close_approach_data": [
        {
            "close_approach_date": "2015-10-09",
            "close_approach_date_full": "2015-Oct-09 23:08",
            "epoch_date_close_approach": 1444432080000,
            "relative_velocity": {
                "kilometers_per_second": "18.8794839882",
                "kilometers_per_hour": "67966.1423574916",
                "miles_per_hour": "42231.5177331869"
            },
            "miss_distance": {
                "astronomical": "0.1196027259",
                "lunar": "46.5254603751",
                "kilometers": "17892313.040833833",
                "miles": "11117767.7858315754"
            },
            "orbiting_body": "Earth"
        },
        {
            "close_approach_date": "2017-03-25",
            "close_approach_date_full": "2017-Mar-25 20:56",
            "epoch_date_close_approach": 1490475360000,
            "relative_velocity": {
                "kilometers_per_second": "26.6209445259",
                "kilometers_per_hour": "95835.400293366",
                "miles_per_hour": "59548.390810064"
            },
            "miss_distance": {
                "astronomical": "0.3798781052",
                "lunar": "147.7725829228",
                "kilometers": "56828955.397555924",
                "miles": "35311875.4506187912"
            },
            "orbiting_body": "Earth"
        },
        {
            "close_approach_date": "2109-04-19",
            "close_approach_date_full": "2109-Apr-19 09:41",
            "epoch_date_close_approach": 4395807660000,
            "relative_velocity": {
                "kilometers_per_second": "13.7320562483",
                "kilometers_per_hour": "49435.4024938242",
                "miles_per_hour": "30717.2366217876"
            },
            "miss_distance": {
                "astronomical": "0.0606253487",
                "lunar": "23.5832606443",
                "kilometers": "9069423.033527269",
                "miles": "5635478.1524395522"
            },
            "orbiting_body": "Earth"
        }
    ],
    "orbital_data": {
        "orbit_id": "5",
        "orbit_determination_date": "2017-04-06 08:31:15",
        "first_observation_date": "2015-10-14",
        "last_observation_date": "2015-11-03",
        "data_arc_in_days": 20,
        "observations_used": 28,
        "orbit_uncertainty": "9",
        "minimum_orbit_intersection": ".0105986",
        "jupiter_tisserand_invariant": "4.502",
        "epoch_osculation": "2457313.5",
        "eccentricity": ".5099920793849033",
        "semi_major_axis": "1.445621681343265",
        "inclination": "5.797519949521856",
        "ascending_node_longitude": "195.4456990865804",
        "orbital_period": "634.8635694563612",
        "perihelion_distance": ".7083660740711132",
        "perihelion_argument": "91.6096189503549",
        "aphelion_distance": "2.182877288615417",
        "perihelion_time": "2457253.333829846955",
        "mean_anomaly": "34.11728487373071",
        "mean_motion": ".5670509654669127",
        "equinox": "J2000",
        "orbit_class": {
            "orbit_class_type": "APO",
            "orbit_class_description": "Near-Earth asteroid orbits which cross the Earth’s orbit similar to that of 1862 Apollo",
            "orbit_class_range": "a (semi-major axis) > 1.0 AU; q (perihelion) < 1.017 AU"
        }
    },
    "is_sentry_object": false
}